{
    "links": {
        "self": "http://www.neowsapp.com/rest/v1/neo/3763232?api_key=iIulBulltgU6a56xZRHN4H3l9WmuAYTsLGpBGhQ2"
    },
    "id": "3763232",
    "neo_reference_id": "3763232",
    "name": "(2016 VK)",
    "designation": "2016 VK",
    "nasa_jpl_url": "http://ssd.jpl.nasa.gov/sbdb.cgi?sstr=3763232",
    "absolute_magnitude_h": 22.4,
    "estimated_diameter": {
        "kilometers": {
            "estimated_diameter_min": 0.0880146521,
            "estimated_diameter_max": 0.1968067451
        },
        "meters": {
            "estimated_diameter_min": 88.0146520901,
            "estimated_diameter_max": 196.8067450894
        },
        "miles": {
            "estimated_diameter_min": 0.0546897524,
            "estimated_diameter_max": 0.122290004
        },
        "feet": {
            "estimated_diameter_min": 288.7619911632,
            "estimated_diameter_max": 645.6914415591
        }
    },
    "is_potentially_hazardous_asteroid": false,
    "close_approach_data": [
        {
            "close_approach_date": "2016-11-22",
            "close_approach_date_full": "2016-Nov-22 02:47",
            "epoch_date_close_approach": 1479782820000,
            "relative_velocity": {
                "kilometers_per_second": "22.1234240763",
                "kilometers_per_hour": "79644.3266746343",
                "miles_per_hour": "49487.8873162471"
            },
            "miss_distance": {
                "astronomical": "0.1359840322",
                "lunar": "52.8977885258",
                "kilometers": "20342921.571131414",
                "miles": "12640505.3162809532"
            },
            "orbiting_body": "Earth"
        }
    ],
    "orbital_data": {
        "orbit_id": "7",
        "orbit_determination_date": "2017-04-06 08:22:31",
        "first_observation_date": "2016-11-02",
        "last_observation_date": "2016-11-19",
        "data_arc_in_days": 17,
        "observations_used": 35,
        "orbit_uncertainty": "9",
        "minimum_orbit_intersection": ".0405849",
        "jupiter_tisserand_invariant": "3.641",
        "epoch_osculation": "2457698.5",
        "eccentricity": ".7801497580200112",
        "semi_major_axis": "1.787109393298685",
        "inclination": "5.981125547195885",
        "ascending_node_longitude": "210.9721048443745",
        "orbital_period": "872.6199409389208",
        "perihelion_distance": ".3928964325614268",
        "perihelion_argument": "315.3096391636491",
        "aphelion_distance": "3.181322354035943",
        "perihelion_time": "2457761.031262722689",
        "mean_anomaly": "334.2026814606753",
        "mean_motion": ".4125507372804792",
        "equinox": "J2000",
        "orbit_class": {
            "orbit_class_type": "APO",
            "orbit_class_description": "Near-Earth asteroid orbits which cross the Earth’s orbit similar to that of 1862 Apollo",
            "orbit_class_range": "a (semi-major axis) > 1.0 AU; q (perihelion) < 1.017 AU"
        }
    },
    "is_sentry_object": false
}